{
  "type": "FeatureCollection",
  "features": [
    {
      "type": "Feature",
      "properties": {
        "norad_id": 66411,
        "name": "ZK-1A R/B",
        "group": "last-30-days",
        "lat": 76.80385168385754,
        "lon": 10.15886657275053,
        "alt_km": 712.7327013721542,
        "timestamp": "2025-12-07T09:35:08.569203+00:00",
        "meta_object_name": "ZK-1A R/B",
        "meta_object_id": "2025-256C",
        "meta_epoch": "2025-12-06T22:01:38.930016",
        "meta_mean_motion": 15.01774496,
        "meta_eccentricity": 0.02289262,
        "meta_inclination": 98.3233,
        "meta_ra_of_asc_node": 48.278,
        "meta_arg_of_pericenter": 264.4251,
        "meta_mean_anomaly": 93.0825,
        "meta_ephemeris_type": 0,
        "meta_classification_type": "U",
        "meta_norad_cat_id": 66411,
        "meta_element_set_no": 999,
        "meta_rev_at_epoch": 417,
        "meta_bstar": 0.00090693768,
        "meta_mean_motion_dot": 0.00020878,
        "meta_mean_motion_ddot": 0,
        "tle_line1": "1 66411U 25256C   25340.91781169  .00020878  00000+0  90694-3 0  9999",
        "tle_line2": "2 66411  98.3233  48.2780 0228926 264.4251  93.0825 15.01774496  4173"
      },
      "geometry": {
        "type": "Point",
        "coordinates": [
          10.15886657275053,
          76.80385168385754
        ]
      }
    },
    {
      "type": "Feature",
      "properties": {
        "norad_id": 66412,
        "name": "HULIANWANG DIGUI 13A",
        "group": "last-30-days",
        "lat": 38.98665435595573,
        "lon": 61.71654159981311,
        "alt_km": 819.8088488975291,
        "timestamp": "2025-12-07T09:35:08.569213+00:00",
        "meta_object_name": "HULIANWANG DIGUI 13A",
        "meta_object_id": "2025-258A",
        "meta_epoch": "2025-12-06T21:11:36.725280",
        "meta_mean_motion": 14.21774266,
        "meta_eccentricity": 0.00098728,
        "meta_inclination": 50.0171,
        "meta_ra_of_asc_node": 286.6631,
        "meta_arg_of_pericenter": 337.6929,
        "meta_mean_anomaly": 22.3553,
        "meta_ephemeris_type": 0,
        "meta_classification_type": "U",
        "meta_norad_cat_id": 66412,
        "meta_element_set_no": 999,
        "meta_rev_at_epoch": 382,
        "meta_bstar": 0.00032275141,
        "meta_mean_motion_dot": 5.56e-06,
        "meta_mean_motion_ddot": 0,
        "tle_line1": "1 66412U 25258A   25340.88306395  .00000556  00000+0  32275-3 0  9994",
        "tle_line2": "2 66412  50.0171 286.6631 0009872 337.6929  22.3553 14.21774266  3825"
      },
      "geometry": {
        "type": "Point",
        "coordinates": [
          61.71654159981311,
          38.98665435595573
        ]
      }
    },
    {
      "type": "Feature",
      "properties": {
        "norad_id": 66413,
        "name": "HULIANWANG DIGUI 13B",
        "group": "last-30-days",
        "lat": 48.928987516600834,
        "lon": -0.9384653354091399,
        "alt_km": 815.5744626716878,
        "timestamp": "2025-12-07T09:35:08.569224+00:00",
        "meta_object_name": "HULIANWANG DIGUI 13B",
        "meta_object_id": "2025-258B",
        "meta_epoch": "2025-12-06T23:05:07.655424",
        "meta_mean_motion": 14.21045394,
        "meta_eccentricity": 0.00109243,
        "meta_inclination": 49.9958,
        "meta_ra_of_asc_node": 286.3985,
        "meta_arg_of_pericenter": 343.9291,
        "meta_mean_anomaly": 16.1273,
        "meta_ephemeris_type": 0,
        "meta_classification_type": "U",
        "meta_norad_cat_id": 66413,
        "meta_element_set_no": 999,
        "meta_rev_at_epoch": 383,
        "meta_bstar": 0.00036123731,
        "meta_mean_motion_dot": 6.31e-06,
        "meta_mean_motion_ddot": 0,
        "tle_line1": "1 66413U 25258B   25340.96189416  .00000631  00000+0  36124-3 0  9998",
        "tle_line2": "2 66413  49.9958 286.3985 0010924 343.9291  16.1273 14.21045394  3831"
      },
      "geometry": {
        "type": "Point",
        "coordinates": [
          -0.9384653354091399,
          48.928987516600834
        ]
      }
    },
    {
      "type": "Feature",
      "properties": {
        "norad_id": 66414,
        "name": "HULIANWANG DIGUI 13C",
        "group": "last-30-days",
        "lat": 49.42243749634901,
        "lon": 25.962451182619883,
        "alt_km": 818.2266743957844,
        "timestamp": "2025-12-07T09:35:08.569234+00:00",
        "meta_object_name": "HULIANWANG DIGUI 13C",
        "meta_object_id": "2025-258C",
        "meta_epoch": "2025-12-06T23:00:14.068224",
        "meta_mean_motion": 14.21123758,
        "meta_eccentricity": 0.00106532,
        "meta_inclination": 50.0059,
        "meta_ra_of_asc_node": 286.3873,
        "meta_arg_of_pericenter": 337.9298,
        "meta_mean_anomaly": 22.1154,
        "meta_ephemeris_type": 0,
        "meta_classification_type": "U",
        "meta_norad_cat_id": 66414,
        "meta_element_set_no": 999,
        "meta_rev_at_epoch": 383,
        "meta_bstar": 0.00035939892,
        "meta_mean_motion_dot": 6.28e-06,
        "meta_mean_motion_ddot": 0,
        "tle_line1": "1 66414U 25258C   25340.95849616  .00000628  00000+0  35940-3 0  9994",
        "tle_line2": "2 66414  50.0059 286.3873 0010653 337.9298  22.1154 14.21123758  3838"
      },
      "geometry": {
        "type": "Point",
        "coordinates": [
          25.962451182619883,
          49.42243749634901
        ]
      }
    },
    {
      "type": "Feature",
      "properties": {
        "norad_id": 66415,
        "name": "HULIANWANG DIGUI 13D",
        "group": "last-30-days",
        "lat": 33.90587750024521,
        "lon": 70.12737259526222,
        "alt_km": 821.4908775538497,
        "timestamp": "2025-12-07T09:35:08.569245+00:00",
        "meta_object_name": "HULIANWANG DIGUI 13D",
        "meta_object_id": "2025-258D",
        "meta_epoch": "2025-12-06T22:50:27.313728",
        "meta_mean_motion": 14.21786432,
        "meta_eccentricity": 0.00110818,
        "meta_inclination": 50.0084,
        "meta_ra_of_asc_node": 286.3507,
        "meta_arg_of_pericenter": 343.5522,
        "meta_mean_anomaly": 16.5029,
        "meta_ephemeris_type": 0,
        "meta_classification_type": "U",
        "meta_norad_cat_id": 66415,
        "meta_element_set_no": 999,
        "meta_rev_at_epoch": 383,
        "meta_bstar": 0.00031006307,
        "meta_mean_motion_dot": 5.28e-06,
        "meta_mean_motion_ddot": 0,
        "tle_line1": "1 66415U 25258D   25340.95170502  .00000528  00000+0  31006-3 0  9994",
        "tle_line2": "2 66415  50.0084 286.3507 0011081 343.5522  16.5029 14.21786432  3832"
      },
      "geometry": {
        "type": "Point",
        "coordinates": [
          70.12737259526222,
          33.90587750024521
        ]
      }
    },
    {
      "type": "Feature",
      "properties": {
        "norad_id": 66416,
        "name": "HULIANWANG DIGUI 13E",
        "group": "last-30-days",
        "lat": 46.68052512589587,
        "lon": 41.60943184296948,
        "alt_km": 816.8901026700596,
        "timestamp": "2025-12-07T09:35:08.569258+00:00",
        "meta_object_name": "HULIANWANG DIGUI 13E",
        "meta_object_id": "2025-258E",
        "meta_epoch": "2025-12-06T06:05:20.650272",
        "meta_mean_motion": 14.21759879,
        "meta_eccentricity": 0.00106116,
        "meta_inclination": 50.0051,
        "meta_ra_of_asc_node": 289.3198,
        "meta_arg_of_pericenter": 342.4117,
        "meta_mean_anomaly": 17.6426,
        "meta_ephemeris_type": 0,
        "meta_classification_type": "U",
        "meta_norad_cat_id": 66416,
        "meta_element_set_no": 999,
        "meta_rev_at_epoch": 373,
        "meta_bstar": 0.00040565133,
        "meta_mean_motion_dot": 7.4e-06,
        "meta_mean_motion_ddot": 0,
        "tle_line1": "1 66416U 25258E   25340.25371123  .00000740  00000+0  40565-3 0  9996",
        "tle_line2": "2 66416  50.0051 289.3198 0010611 342.4117  17.6426 14.21759879  3739"
      },
      "geometry": {
        "type": "Point",
        "coordinates": [
          41.60943184296948,
          46.68052512589587
        ]
      }
    },
    {
      "type": "Feature",
      "properties": {
        "norad_id": 66417,
        "name": "HULIANWANG DIGUI 13F",
        "group": "last-30-days",
        "lat": 43.1691573659517,
        "lon": 52.509213296049985,
        "alt_km": 817.7648047039484,
        "timestamp": "2025-12-07T09:35:08.569268+00:00",
        "meta_object_name": "HULIANWANG DIGUI 13F",
        "meta_object_id": "2025-258F",
        "meta_epoch": "2025-12-06T14:29:09.906432",
        "meta_mean_motion": 14.21933133,
        "meta_eccentricity": 0.00102248,
        "meta_inclination": 50.0001,
        "meta_ra_of_asc_node": 287.8136,
        "meta_arg_of_pericenter": 341.4358,
        "meta_mean_anomaly": 18.618,
        "meta_ephemeris_type": 0,
        "meta_classification_type": "U",
        "meta_norad_cat_id": 66417,
        "meta_element_set_no": 999,
        "meta_rev_at_epoch": 378,
        "meta_bstar": 0.00035322897,
        "meta_mean_motion_dot": 6.26e-06,
        "meta_mean_motion_ddot": 0,
        "tle_line1": "1 66417U 25258F   25340.60358688  .00000626  00000+0  35323-3 0  9996",
        "tle_line2": "2 66417  50.0001 287.8136 0010224 341.4358  18.6180 14.21933133  3786"
      },
      "geometry": {
        "type": "Point",
        "coordinates": [
          52.509213296049985,
          43.1691573659517
        ]
      }
    }
  ]
}